0 SL-8 DEB
1 08764U 70102E   13282.24930659  .00000169  00000-0  16961-3 0  4929
2 08764 074.0388 200.6673 0021445 039.2307 126.4337 13.84860786160229
0 SL-8 DEB
1 08764U 70102E   13283.81683352  .00000166  00000-0  16678-3 0  4931
2 08764 074.0388 198.0234 0021576 036.3623 021.2093 13.84861331160437
0 SL-8 DEB
1 08764U 70102E   13285.20943981  .00000183  00000-0  18240-3 0  4940
2 08764 074.0387 195.6748 0021632 033.7323 124.0200 13.84861558160635
0 SL-8 DEB
1 08764U 70102E   13286.22102117  .00000193  00000-0  19134-3 0  4956
2 08764 074.0388 193.9688 0021678 031.8158 127.2446 13.84861940160772
0 SL-8 DEB
1 08764U 70102E   13287.44081256  .00000229  00000-0  22317-3 0  4969
2 08764 074.0385 191.9115 0021723 029.5076 088.4975 13.84862346160941
0 SL-8 DEB
1 08764U 70102E   13289.18202461  .00000252  00000-0  24295-3 0  4979
2 08764 074.0380 188.9750 0021778 026.2016 129.3005 13.84863567161187
0 SL-8 DEB
1 08764U 70102E   13290.19344905  .00000223  00000-0  21757-3 0  4981
2 08764 074.0379 187.2693 0021829 024.3579 131.6760 13.84864217161326
0 SL-8 DEB
1 08764U 70102E   13291.41369508  .00000223  00000-0  21772-3 0  4991
2 08764 074.0376 185.2113 0021841 021.9109 095.3430 13.84864926161499
0 SL-8 DEB
1 08764U 70102E   13292.69656141  .00000234  00000-0  22753-3 0  5009
2 08764 074.0374 183.0476 0021879 019.4720 011.0790 13.84865601161672
0 SL-8 DEB
1 08764U 70102E   13293.70770257  .00000210  00000-0  20655-3 0  5011
2 08764 074.0374 181.3422 0021922 017.5517 012.1272 13.84866300161816
0 SL-8 DEB
1 08764U 70102E   13295.38663432  .00000212  00000-0  20792-3 0  5028
2 08764 074.0373 178.5104 0021979 014.3894 102.4294 13.84867112162040
